{"type": "FeatureCollection", "features": [ {"type": "Feature", "properties": {"norad_id": 66505, "name": "STARLINK-34766", "group": "last-30-days", "lat": 19.382551147998413, "lon": -68.6314100018939, "alt_km": 412.7121870999481, "timestamp": "2025-12-11T07:02:22.476981+00:00", "meta": {"OBJECT_NAME": "STARLINK-34766", "OBJECT_ID": "2025-263W", "EPOCH": "2025-12-10T22:00:03.000096", "MEAN_MOTION": 15.50589008, "ECCENTRICITY": 0.00016614, "INCLINATION": 43.0006, "RA_OF_ASC_NODE": 135.7531, "ARG_OF_PERICENTER": 274.7088, "MEAN_ANOMALY": 291.3001, "EPHEMERIS_TYPE": 0, "CLASSIFICATION_TYPE": "U", "NORAD_CAT_ID": 66505, "ELEMENT_SET_NO": 999, "REV_AT_EPOCH": 534, "BSTAR": -0.00075070311, "MEAN_MOTION_DOT": -0.0004415, "MEAN_MOTION_DDOT": 0}, "tle": {"line1": "1 66505U 25263W   25344.91670139 -.00044150  00000+0 -75070-3 0  9991", "line2": "2 66505  43.0006 135.7531 0001661 274.7088 291.3001 15.50589008  5341"}}, "geometry": {"type": "Point", "coordinates": [-68.6314100018939, 19.382551147998413]}}, {"type": "Feature", "properties": {"norad_id": 66506, "name": "STARLINK-34765", "group": "last-30-days", "lat": 18.16690272244813, "lon": -67.07232062569965, "alt_km": 412.8020245901371, "timestamp": "2025-12-11T07:02:22.476993+00:00", "meta": {"OBJECT_NAME": "STARLINK-34765", "OBJECT_ID": "2025-263X", "EPOCH": "2025-12-10T22:00:03.000096", "MEAN_MOTION": 15.50583859, "ECCENTRICITY": 0.00015727, "INCLINATION": 43.0005, "RA_OF_ASC_NODE": 135.7491, "ARG_OF_PERICENTER": 272.4088, "MEAN_ANOMALY": 295.5171, "EPHEMERIS_TYPE": 0, "CLASSIFICATION_TYPE": "U", "NORAD_CAT_ID": 66506, "ELEMENT_SET_NO": 999, "REV_AT_EPOCH": 534, "BSTAR": -0.00063118915, "MEAN_MOTION_DOT": -0.00037201, "MEAN_MOTION_DDOT": 0}, "tle": {"line1": "1 66506U 25263X   25344.91670139 -.00037201  00000+0 -63119-3 0  9992", "line2": "2 66506  43.0005 135.7491 0001572 272.4088 295.5171 15.50583859  5344"}}, "geometry": {"type": "Point", "coordinates": [-67.07232062569965, 18.16690272244813]}}, {"type": "Feature", "properties": {"norad_id": 66507, "name": "STARLINK-34767", "group": "last-30-days", "lat": 16.295926955519725, "lon": -64.74678542503402, "alt_km": 417.7444296063177, "timestamp": "2025-12-11T07:02:22.477003+00:00", "meta": {"OBJECT_NAME": "STARLINK-34767", "OBJECT_ID": "2025-263Y", "EPOCH": "2025-12-10T22:00:03.000096", "MEAN_MOTION": 15.5072533, "ECCENTRICITY": 0.0001476, "INCLINATION": 43.0006, "RA_OF_ASC_NODE": 135.7377, "ARG_OF_PERICENTER": 281.6866, "MEAN_ANOMALY": 290.0632, "EPHEMERIS_TYPE": 0, "CLASSIFICATION_TYPE": "U", "NORAD_CAT_ID": 66507, "ELEMENT_SET_NO": 999, "REV_AT_EPOCH": 534, "BSTAR": -0.038095879, "MEAN_MOTION_DOT": -0.02006323, "MEAN_MOTION_DDOT": 0}, "tle": {"line1": "1 66507U 25263Y   25344.91670139 -.02006323  00000+0 -38096-1 0  9990", "line2": "2 66507  43.0006 135.7377 0001476 281.6866 290.0632 15.50725330  5342"}}, "geometry": {"type": "Point", "coordinates": [-64.74678542503402, 16.295926955519725]}}, {"type": "Feature", "properties": {"norad_id": 66508, "name": "STARLINK-35608", "group": "last-30-days", "lat": 11.908789855239222, "lon": -59.55926365283815, "alt_km": 413.6225647732126, "timestamp": "2025-12-11T07:02:22.477013+00:00", "meta": {"OBJECT_NAME": "STARLINK-35608", "OBJECT_ID": "2025-263Z", "EPOCH": "2025-12-10T22:00:03.000096", "MEAN_MOTION": 15.50595933, "ECCENTRICITY": 0.00015287, "INCLINATION": 43.0004, "RA_OF_ASC_NODE": 135.7243, "ARG_OF_PERICENTER": 273.2251, "MEAN_ANOMALY": 304.2859, "EPHEMERIS_TYPE": 0, "CLASSIFICATION_TYPE": "U", "NORAD_CAT_ID": 66508, "ELEMENT_SET_NO": 999, "REV_AT_EPOCH": 534, "BSTAR": -0.00098448632, "MEAN_MOTION_DOT": -0.00057708, "MEAN_MOTION_DDOT": 0}, "tle": {"line1": "1 66508U 25263Z   25344.91670139 -.00057708  00000+0 -98449-3 0  9992", "line2": "2 66508  43.0004 135.7243 0001528 273.2251 304.2859 15.50595933  5349"}}, "geometry": {"type": "Point", "coordinates": [-59.55926365283815, 11.908789855239222]}}, {"type": "Feature", "properties": {"norad_id": 66509, "name": "STARLINK-35598", "group": "last-30-days", "lat": 6.762564322421541, "lon": -53.81096731502313, "alt_km": 414.22714860614724, "timestamp": "2025-12-11T07:02:22.477023+00:00", "meta": {"OBJECT_NAME": "STARLINK-35598", "OBJECT_ID": "2025-263AA", "EPOCH": "2025-12-10T22:00:03.000096", "MEAN_MOTION": 15.5060096, "ECCENTRICITY": 0.00015376, "INCLINATION": 43.0004, "RA_OF_ASC_NODE": 135.7032, "ARG_OF_PERICENTER": 271.6953, "MEAN_ANOMALY": 313.4837, "EPHEMERIS_TYPE": 0, "CLASSIFICATION_TYPE": "U", "NORAD_CAT_ID": 66509, "ELEMENT_SET_NO": 999, "REV_AT_EPOCH": 534, "BSTAR": -0.0011399846, "MEAN_MOTION_DOT": -0.00066704, "MEAN_MOTION_DDOT": 0}, "tle": {"line1": "1 66509U 25263AA  25344.91670139 -.00066704  00000+0 -11400-2 0  9990", "line2": "2 66509  43.0004 135.7032 0001537 271.6953 313.4837 15.50600960  5342"}}, "geometry": {"type": "Point", "coordinates": [-53.81096731502313, 6.762564322421541]}}, {"type": "Feature", "properties": {"norad_id": 66510, "name": "STARLINK-35600", "group": "last-30-days", "lat": 10.628916135960452, "lon": -58.103205294303315, "alt_km": 413.71063785358274, "timestamp": "2025-12-11T07:02:22.477033+00:00", "meta": {"OBJECT_NAME": "STARLINK-35600", "OBJECT_ID": "2025-263AB", "EPOCH": "2025-12-10T22:00:03.000096", "MEAN_MOTION": 15.50608384, "ECCENTRICITY": 0.00014694, "INCLINATION": 43.0005, "RA_OF_ASC_NODE": 135.7184, "ARG_OF_PERICENTER": 268.2089, "MEAN_ANOMALY": 311.2204, "EPHEMERIS_TYPE": 0, "CLASSIFICATION_TYPE": "U", "NORAD_CAT_ID": 66510, "ELEMENT_SET_NO": 999, "REV_AT_EPOCH": 534, "BSTAR": -0.0014576824, "MEAN_MOTION_DOT": -0.00085023, "MEAN_MOTION_DDOT": 0}, "tle": {"line1": "1 66510U 25263AB  25344.91670139 -.00085023  00000+0 -14577-2 0  9995", "line2": "2 66510  43.0005 135.7184 0001469 268.2089 311.2204 15.50608384  5341"}}, "geometry": {"type": "Point", "coordinates": [-58.103205294303315, 10.628916135960452]}}, {"type": "Feature", "properties": {"norad_id": 66511, "name": "STARLINK-35444", "group": "last-30-days", "lat": 8.055891657869319, "lon": -55.230813203982265, "alt_km": 414.1338934137957, "timestamp": "2025-12-11T07:02:22.477044+00:00", "meta": {"OBJECT_NAME": "STARLINK-35444", "OBJECT_ID": "2025-263AC", "EPOCH": "2025-12-10T22:00:03.000096", "MEAN_MOTION": 15.50594544, "ECCENTRICITY": 0.0001449, "INCLINATION": 43.0003, "RA_OF_ASC_NODE": 135.7088, "ARG_OF_PERICENTER": 276.5276, "MEAN_ANOMALY": 306.7383, "EPHEMERIS_TYPE": 0, "CLASSIFICATION_TYPE": "U", "NORAD_CAT_ID": 66511, "ELEMENT_SET_NO": 999, "REV_AT_EPOCH": 534, "BSTAR": -0.00097185027, "MEAN_MOTION_DOT": -0.00056973, "MEAN_MOTION_DDOT": 0}, "tle": {"line1": "1 66511U 25263AC  25344.91670139 -.00056973  00000+0 -97185-3 0  9995", "line2": "2 66511  43.0003 135.7088 0001449 276.5276 306.7383 15.50594544  5340"}}, "geometry": {"type": "Point", "coordinates": [-55.230813203982265, 8.055891657869319]}}, {"type": "Feature", "properties": {"norad_id": 66512, "name": "STARLINK-35366", "group": "last-30-days", "lat": 5.464153737929801, "lon": -52.39643352630182, "alt_km": 414.4397522149202, "timestamp": "2025-12-11T07:02:22.477053+00:00", "meta": {"OBJECT_NAME": "STARLINK-35366", "OBJECT_ID": "2025-263AD", "EPOCH": "2025-12-10T22:00:03.000096", "MEAN_MOTION": 15.50591957, "ECCENTRICITY": 0.00015216, "INCLINATION": 43.0003, "RA_OF_ASC_NODE": 135.6989, "ARG_OF_PERICENTER": 275.2437, "MEAN_ANOMALY": 311.8585, "EPHEMERIS_TYPE": 0, "CLASSIFICATION_TYPE": "U", "NORAD_CAT_ID": 66512, "ELEMENT_SET_NO": 999, "REV_AT_EPOCH": 534, "BSTAR": -0.00096227597, "MEAN_MOTION_DOT": -0.00056415, "MEAN_MOTION_DDOT": 0}, "tle": {"line1": "1 66512U 25263AD  25344.91670139 -.00056415  00000+0 -96228-3 0  9994", "line2": "2 66512  43.0003 135.6989 0001521 275.2437 311.8585 15.50591957  5342"}}, "geometry": {"type": "Point", "coordinates": [-52.39643352630182, 5.464153737929801]}}, {"type": "Feature", "properties": {"norad_id": 66513, "name": "STARLINK-35692", "group": "last-30-days", "lat": 9.349834538558564, "lon": -56.66673324268034, "alt_km": 413.97466812578205, "timestamp": "2025-12-11T07:02:22.477065+00:00", "meta": {"OBJECT_NAME": "STARLINK-35692", "OBJECT_ID": "2025-263AE", "EPOCH": "2025-12-10T22:00:03.000096", "MEAN_MOTION": 15.50700294, "ECCENTRICITY": 0.00015537, "INCLINATION": 43.0004, "RA_OF_ASC_NODE": 135.7138, "ARG_OF_PERICENTER": 274.6069, "MEAN_ANOMALY": 306.6632, "EPHEMERIS_TYPE": 0, "CLASSIFICATION_TYPE": "U", "NORAD_CAT_ID": 66513, "ELEMENT_SET_NO": 999, "REV_AT_EPOCH": 534, "BSTAR": -0.0032965387, "MEAN_MOTION_DOT": -0.0018994, "MEAN_MOTION_DDOT": 0}, "tle": {"line1": "1 66513U 25263AE  25344.91670139 -.00189940  00000+0 -32965-2 0  9992", "line2": "2 66513  43.0004 135.7138 0001553 274.6069 306.6632 15.50700294  5341"}}, "geometry": {"type": "Point", "coordinates": [-56.66673324268034, 9.349834538558564]}}, {"type": "Feature", "properties": {"norad_id": 66514, "name": "SENTINEL-6B", "group": "last-30-days", "lat": -64.07592260016003, "lon": 99.25530473383196, "alt_km": 1315.8265924702055, "timestamp": "2025-12-11T07:02:22.477080+00:00", "meta": {"OBJECT_NAME": "SENTINEL-6B", "OBJECT_ID": "2025-264A", "EPOCH": "2025-12-08T23:22:28.347744", "MEAN_MOTION": 12.8403254, "ECCENTRICITY": 0.00210881, "INCLINATION": 66.0391, "RA_OF_ASC_NODE": 170.2706, "ARG_OF_PERICENTER": 268.225, "MEAN_ANOMALY": 91.6352, "EPHEMERIS_TYPE": 0, "CLASSIFICATION_TYPE": "U", "NORAD_CAT_ID": 66514, "ELEMENT_SET_NO": 999, "REV_AT_EPOCH": 280, "BSTAR": -0.0054273268, "MEAN_MOTION_DOT": -1.368e-05, "MEAN_MOTION_DDOT": 0}, "tle": {"line1": "1 66514U 25264A   25342.97393921 -.00001368  00000+0 -54273-2 0  9992", "line2": "2 66514  66.0391 170.2706 0021088 268.2250  91.6352 12.84032540  2801"}}, "geometry": {"type": "Point", "coordinates": [99.25530473383196, -64.07592260016003]}}]}